ASIASAT 9               
1 42942U 17057A   26181.70252964  .00000000  00000+0  00000+0 0  9992
2 42942   0.0442  61.5216 0002504  30.1213 202.2028  1.00269722 31992
INTELSAT 37E (IS-37E)   
1 42950U 17059A   26182.15324889  .00000000  00000+0  00000+0 0  9999
2 42950   0.0248  35.2849 0002891  68.6355 212.4527  1.00268237 32209
BSAT-4A                 
1 42951U 17059B   26182.10726435 -.00000340  00000+0  00000+0 0  9996
2 42951   0.0411  30.3066 0004059  44.8323 352.4776  1.00272200 31933
QZS-4 (MICHIBIKI-4)     
1 42965U 17062A   26181.32690646 -.00000331  00000+0  00000+0 0  9992
2 42965  40.1009 343.3188 0746709 268.3129 282.6055  1.00295775 31936
SES-11 (ECHOSTAR 105)   
1 42967U 17063A   26182.15044918 -.00000079  00000+0  00000+0 0  9991
2 42967   0.0227 324.7402 0002982 133.5591 130.1268  1.00271730 31861
KOREASAT 5A             
1 42984U 17067A   26182.04975227 -.00000348  00000+0  00000+0 0  9997
2 42984   0.0132  39.8159 0001020  63.0531 307.3020  1.00270359 31669
ALCOMSAT 1              
1 43039U 17078A   26182.08065757 -.00000176  00000+0  00000+0 0  9992
2 43039   0.0184  52.5466 0002618  42.3498 188.4708  1.00271009 31436
SBIRS GEO-3 (USA 282)   
1 43162U 18009A   26182.19905875  .00000138  00000+0  00000+0 0  9997
2 43162   2.1936  12.7392 0002272  82.2624  96.5185  1.00272635 30980
AL YAH 3                
1 43174U 18012A   26182.15281557 -.00000146  00000+0  00000+0 0  9994
2 43174   1.5861  82.9556 0004142  14.4876 216.6675  1.00271527 30986
SES-14                  
1 43175U 18012B   26182.00484247 -.00000268  00000+0  00000+0 0  9995
2 43175   0.0175  33.2970 0001270  65.1878 134.8199  1.00270675  7161
GOES 17                 
1 43226U 18022A   26182.14489469 -.00000173  00000+0  00000+0 0  9994
2 43226   0.9707  85.4897 0000746  35.5302 120.8479  1.00272167 30569
HISPASAT 30W-6          
1 43228U 18023A   26182.12840983 -.00000205  00000+0  00000+0 0  9993
2 43228   0.0435  46.2557 0005999  33.8655 215.2914  1.00274471 30546
SUPERBIRD-B3            
1 43271U 18033A   26182.19141894 -.00000081  00000+0  00000+0 0  9996
2 43271   0.0108 354.3493 0001226 104.3323  51.4881  1.00272336 30202
HYLAS 4                 
1 43272U 18033B   26182.15021556  .00000000  00000+0  00000+0 0  9995
2 43272   0.0237  26.5726 0001084  88.8746 184.3298  1.00270862 30200
IRNSS-1I                
1 43286U 18035A   26179.79558490  .00000066  00000+0  00000+0 0  9992
2 43286  28.7805  74.0157 0017671 182.6115   1.5908  1.00277388 30197
USA 283                 
1 43339U 18036A   26178.72558420  .00000000  00000+0  00000+0 0  9995
2 43339   0.0104 356.5956 0000306 111.8147 202.7533  1.00270887 25394
COSMOS 2526             
1 43432U 18037A   26181.68313230 -.00000333  00000+0  00000+0 0  9997
2 43432   0.0324  68.9170 0000318 293.2676 290.5648  1.00282126 30093
APSTAR-6C               
1 43450U 18041A   26181.68434565 -.00000307  00000+0  00000+0 0  9998
2 43450   0.0446 304.3996 0000393  88.0346 266.6778  1.00270860 29940
BANGABANDHUSAT-1        
1 43463U 18044A   26182.04419734 -.00000352  00000+0  00000+0 0  9997
2 43463   0.0229  85.9147 0002101  20.0630 308.1292  1.00270037 29842
SES-12                  
1 43488U 18049A   26182.10431769 -.00000259  00000+0  00000+0 0  9994
2 43488   0.0114  13.4090 0000318 259.4883 138.8193  1.00273003 29553
FENGYUN 2H              
1 43491U 18050A   26182.10128434 -.00000121  00000+0  00000+0 0  9990
2 43491   3.0659  78.9176 0001764 121.7065 194.3062  1.00269634 29573
BEIDOU-2 IGSO-7         
1 43539U 18057A   26181.48163089 -.00000036  00000+0  00000+0 0  9990
2 43539  55.1979 162.9413 0104797 237.9284 159.8469  1.00247568 29265
TELSTAR 19V             
1 43562U 18059A   26182.00180911 -.00000269  00000+0  00000+0 0  9998
2 43562   0.0150 114.2649 0003108   5.0492  97.3966  1.00270859 29280
TELKOM 4 (MERAH PUTIH)  
1 43587U 18064A   26182.03564148 -.00000333  00000+0  00000+0 0  9994
2 43587   0.0155 315.7655 0001803 173.1393 271.0174  1.00272190 29017
TELSTAR 18V             
1 43611U 18069A   26181.97026080 -.00000283  00000+0  00000+0 0  9991
2 43611   0.0175 302.5029 0002216 152.1071 311.7084  1.00273522 28779
AZERSPACE 2 (IS-38)     
1 43632U 18074A   26182.16572896  .00000000  00000+0  00000+0 0  9999
2 43632   0.0254  32.6258 0001646  71.9925 279.3754  1.00270227 28588
HORIZONS-3E             
1 43633U 18074B   26181.76258394 -.00000019  00000+0  00000+0 0  9990
2 43633   0.0036 112.8106 0000405 189.6413  59.9192  1.00273598 28471
AEHF-4 (USA 288)        
1 43651U 18079A   26182.14329101 -.00000264  00000+0  00000+0 0  9995
2 43651   1.4360   5.1153 0059862 355.6659 262.4333  1.00268451 28436
BEIDOU-3 G1             
1 43683U 18085A   26182.13043439 -.00000101  00000+0  00000+0 0  9993
2 43683   2.9026  97.0017 0008567 352.9486  36.1127  1.00271092 28206
GSAT-29                 
1 43698U 18089A   26182.16772229  .00000096  00000+0  00000+0 0  9994
2 43698   0.0754 260.3041 0003702 176.2127 318.1082  1.00272102 27920
ES'HAIL 2               
1 43700U 18090A   26182.16191560  .00000155  00000+0  00000+0 0  9999
2 43700   0.0185  21.3458 0002235 112.4565 229.4901  1.00272551 27817
GEO-KOMPSAT-2A          
1 43823U 18100A   26181.68321897 -.00000333  00000+0  00000+0 0  9990
2 43823   0.0424 119.2731 0002364 332.3933 201.3042  1.00270789 27765
GSAT-11                 
1 43824U 18100B   26182.17144898 -.00000067  00000+0  00000+0 0  9994
2 43824   0.0827 265.8871 0008199 187.6164 321.4662  1.00272138 27611
GSAT-7A                 
1 43864U 18105A   26180.98864157  .00000036  00000+0  00000+0 0  9992
2 43864   0.0499  94.8214 0002251 344.9099 257.0637  1.00275031 27575
COSMOS 2533             
1 43867U 18107A   26182.17066898 -.00000027  00000+0  00000+0 0  9997
2 43867   0.0447 105.0656 0000158 138.2548 167.3342  1.00267916 27583
TJS-3                   
1 43874U 18110A   26181.69757860 -.00000209  00000+0  00000+0 0  9993
2 43874   2.5780  80.3391 0002742  77.4202 160.2779  1.00268249 27554
ZHONGXING-2D            
1 43920U 19001A   26182.18245571 -.00000326  00000+0  00000+0 0  9991
2 43920   0.0306 114.1077 0001140 243.8445 117.0037  1.00271383 54223
HELLAS-SAT 4 & SGS-1    
1 44034U 19007A   26182.16451563  .00000163  00000+0  00000+0 0  9990
2 44034   0.0710 129.2656 0005654  10.4822 237.7075  1.00270529 27504
GSAT-31                 
1 44035U 19007B   26182.16633564  .00000136  00000+0  00000+0 0  9994
2 44035   0.0457 231.3396 0000569 161.3243 354.2927  1.00272664 27101
NUSANTARA SATU          
1 44048U 19009A   26181.97182081 -.00000224  00000+0  00000+0 0  9990
2 44048   0.0371 126.5494 0004803 353.0493 295.2984  1.00269891 26908
ZHONGXING-6C            
1 44067U 19012A   26181.68356564 -.00000325  00000+0  00000+0 0  9994
2 44067   0.0593  65.7951 0014837 346.3178 243.1456  1.00272494 26875
WGS 10 (USA 291)        
1 44071U 19014A   26181.90183625  .00000056  00000+0  00000+0 0  9992
2 44071   0.0185  30.8101 0000343  20.6450 252.4750  1.00276190 26753
TIANLIAN 2-01           
1 44076U 19017A   26182.17205566 -.00000097  00000+0  00000+0 0  9995
2 44076   0.5743  83.1237 0001374  47.5014 287.5644  1.00272280 26783
ARABSAT-6A              
1 44186U 19021A   26180.84345005  .00000164  00000+0  00000+0 0  9991
2 44186   0.0475   4.1096 0000836 275.8218 332.0790  1.00257209 26289
BEIDOU-3 IGSO-1         
1 44204U 19023A   26181.99766911 -.00000197  00000+0  00000+0 0  9991
2 44204  58.7138  37.5078 0025682 224.2080 135.1815  1.00288188  7343
BEIDOU-2 G8             
1 44231U 19027A   26181.97156082 -.00000239  00000+0  00000+0 0  9992
2 44231   1.6920  74.5215 0009701 285.1991  53.5071  1.00267800 26216
YAMAL 601               
1 44307U 19031A   26182.16650897  .00000130  00000+0  00000+0 0  9995
2 44307   0.0186  71.8202 0002795  24.2774 292.0672  1.00272272 26069
AT&T T-16               
1 44333U 19034A   26181.99422902 -.00000104  00000+0  00000+0 0  9993
2 44333   0.0175  62.7471 0000363 265.9858 207.3721  1.00269106 25772
EUTELSAT 7C             
1 44334U 19034B   26182.08689759  .00000059  00000+0  00000+0 0  9998
2 44334   0.0753 182.0429 0003627 265.7077 229.6946  1.00273431  6974
BEIDOU-3 IGSO-2         
1 44337U 19035A   26181.82429115 -.00000100  00000+0  00000+0 0  9999
2 44337  55.2499 158.7428 0039571 216.3108 319.8070  1.00262553 25805
COSMOS 2539             
1 44457U 19048A   26181.91364176  .00000092  00000+0  00000+0 0  9990
2 44457   0.0368  92.2011 0000520 345.6977 181.9856  1.00274258 25369
EDRS-C                  
1 44475U 19049A   26181.61477108 -.00000251  00000+0  00000+0 0  9996
2 44475   0.0187  93.7647 0001294  18.4322 170.3036  1.00274580 25345
INTELSAT 39 (IS-39)     
1 44476U 19049B   26182.16910897  .00000000  00000+0  00000+0 0  9996
2 44476   0.0222  18.7129 0000841 330.8069  52.5438  1.00272073 25267
AMOS-17                 
1 44479U 19050A   26181.94633670  .00000120  00000+0  00000+0 0  9990
2 44479   0.0190 336.1794 0002349 152.7366 147.7759  1.00273803 25327
AEHF-5 (USA 292)        
1 44481U 19051A   26182.10414434 -.00000246  00000+0  00000+0 0  9998
2 44481   1.4416 337.2428 0065624 359.4564  73.0331  1.00270020 25407
EUTELSAT 5 WEST B       
1 44624U 19067A   26182.15584890 -.00000031  00000+0  00000+0 0  9995
2 44624   0.0719 328.8712 0003382 131.6114 229.8372  1.00272939 24577
MEV-1                   
1 44625U 19067B   26167.92963140 -.00000149  00000+0  00000+0 0  9993
2 44625   0.8740 268.9828 0002794 179.8034 307.2103  1.00269616 61744
TJS-4                   
1 44637U 19070A   26182.17335566 -.00000160  00000+0  00000+0 0  9992
2 44637   0.0504  85.7683 0004090 322.0269  17.3964  1.00272530 24678
TIBA-1                  
1 44800U 19080A   26182.16382228  .00000166  00000+0  00000+0 0  9996
2 44800   0.0525  14.5373 0002289  92.7882 266.3601  1.00271056 24192
